COSMOS 1933             
1 18958U 88020A   26059.03379367  .00004858  00000+0  23834-3 0  9996
2 18958  82.5098 260.4675 0003033 218.1725 141.9295 15.17880696 48767
SL-3 R/B                
1 19046U 88032B   26059.25183720  .00005840  00000+0  27416-3 0  9990
2 19046  97.5171  42.5380 0024073 267.0245  92.8235 15.19773280 50676
SL-16 R/B               
1 19120U 88039B   26059.25645925  .00000177  00000+0  10613-3 0  9999
2 19120  71.0129  88.4962 0022197 348.3550  11.7059 14.19614539957042
COSMOS 1953             
1 19210U 88050A   26059.26355878  .00008625  00000+0  31091-3 0  9997
2 19210  82.5108 167.7229 0012109 153.1290 207.0580 15.28319792 36342
SL-8 R/B                
1 19257U 88053B   26059.27147726  .00000235  00000+0  84629-4 0  9998
2 19257  74.0473 129.8266 0021157 310.5545 114.9714 14.38909119975243
COSMOS 1975             
1 19573U 88093A   26059.22908259  .00007559  00000+0  27600-3 0  9995
2 19573  82.5206 127.1804 0011257 196.4932 163.5942 15.27897186 17960
SL-14 R/B               
1 19574U 88093B   26059.22347169  .00000612  00000+0  67542-4 0  9996
2 19574  82.5287  50.9313 0022257  70.9818 299.5944 14.85642747999638
SL-16 R/B               
1 19650U 88102B   26059.29856363 -.00000220  00000+0 -86741-4 0  9999
2 19650  71.0001 171.2551 0013386  15.8707 344.2833 14.16149802925563
INTERCOSMOS 24          
1 20261U 89080A   26059.19168829  .00000648  00000+0  19168-3 0  9997
2 20261  82.6037 110.5890 1186947 314.8874  36.1565 12.59540831665601
SL-14 R/B               
1 20262U 89080C   26059.27351946  .00000656  00000+0  19539-3 0  9992
2 20262  82.5970 179.2293 1230200 206.2688 147.0669 12.50479263658975
DELTA 1 R/B             
1 20323U 89089B   26059.17107256  .00000400  00000+0  10745-3 0  9998
2 20323  97.0712 268.1234 0069841 151.6353 208.8676 14.50653988894351
ARIANE 40 R/B           
1 20443U 90005H   26059.15424327  .00000275  00000+0  10105-3 0  9990
2 20443  98.3104 120.0989 0009256 228.3618 131.6779 14.39863085891437
