CCSDS_OMM_VERS = 2.0
CREATION_DATE  = 
ORIGINATOR     = 

OBJECT_NAME    = COSMOS 1933
OBJECT_ID      = 1988-020A
CENTER_NAME    = EARTH
REF_FRAME      = TEME
TIME_SYSTEM    = UTC
MEAN_ELEMENT_THEORY = SGP/SGP4

EPOCH          = 2026-02-28T00:48:39.773088
MEAN_MOTION    = 15.17880696
ECCENTRICITY   = .00030332
INCLINATION    = 82.5098
RA_OF_ASC_NODE = 260.4675
ARG_OF_PERICENTER = 218.1725
MEAN_ANOMALY   = 141.9295

EPHEMERIS_TYPE = 0
CLASSIFICATION_TYPE = U
NORAD_CAT_ID   = 18958
ELEMENT_SET_NO = 999
REV_AT_EPOCH   = 4876
BSTAR          = .23834291E-3
MEAN_MOTION_DOT = .4858E-4
MEAN_MOTION_DDOT = 0

CCSDS_OMM_VERS = 2.0
CREATION_DATE  = 
ORIGINATOR     = 

OBJECT_NAME    = SL-3 R/B
OBJECT_ID      = 1988-032B
CENTER_NAME    = EARTH
REF_FRAME      = TEME
TIME_SYSTEM    = UTC
MEAN_ELEMENT_THEORY = SGP/SGP4

EPOCH          = 2026-02-28T06:02:38.734080
MEAN_MOTION    = 15.19773280
ECCENTRICITY   = .00240731
INCLINATION    = 97.5171
RA_OF_ASC_NODE = 42.5380
ARG_OF_PERICENTER = 267.0245
MEAN_ANOMALY   = 92.8235

EPHEMERIS_TYPE = 0
CLASSIFICATION_TYPE = U
NORAD_CAT_ID   = 19046
ELEMENT_SET_NO = 999
REV_AT_EPOCH   = 5067
BSTAR          = .27415957E-3
MEAN_MOTION_DOT = .584E-4
MEAN_MOTION_DDOT = 0

CCSDS_OMM_VERS = 2.0
CREATION_DATE  = 
ORIGINATOR     = 

OBJECT_NAME    = SL-16 R/B
OBJECT_ID      = 1988-039B
CENTER_NAME    = EARTH
REF_FRAME      = TEME
TIME_SYSTEM    = UTC
MEAN_ELEMENT_THEORY = SGP/SGP4

EPOCH          = 2026-02-28T06:09:18.079200
MEAN_MOTION    = 14.19614539
ECCENTRICITY   = .00221978
INCLINATION    = 71.0129
RA_OF_ASC_NODE = 88.4962
ARG_OF_PERICENTER = 348.3550
MEAN_ANOMALY   = 11.7059

EPHEMERIS_TYPE = 0
CLASSIFICATION_TYPE = U
NORAD_CAT_ID   = 19120
ELEMENT_SET_NO = 999
REV_AT_EPOCH   = 95704
BSTAR          = .10613251E-3
MEAN_MOTION_DOT = .177E-5
MEAN_MOTION_DDOT = 0

CCSDS_OMM_VERS = 2.0
CREATION_DATE  = 
ORIGINATOR     = 

OBJECT_NAME    = COSMOS 1953
OBJECT_ID      = 1988-050A
CENTER_NAME    = EARTH
REF_FRAME      = TEME
TIME_SYSTEM    = UTC
MEAN_ELEMENT_THEORY = SGP/SGP4

EPOCH          = 2026-02-28T06:19:31.478592
MEAN_MOTION    = 15.28319792
ECCENTRICITY   = .00121095
INCLINATION    = 82.5108
RA_OF_ASC_NODE = 167.7229
ARG_OF_PERICENTER = 153.1290
MEAN_ANOMALY   = 207.0580

EPHEMERIS_TYPE = 0
CLASSIFICATION_TYPE = U
NORAD_CAT_ID   = 19210
ELEMENT_SET_NO = 999
REV_AT_EPOCH   = 3634
BSTAR          = .31090711E-3
MEAN_MOTION_DOT = .8625E-4
MEAN_MOTION_DDOT = 0

CCSDS_OMM_VERS = 2.0
CREATION_DATE  = 
ORIGINATOR     = 

OBJECT_NAME    = SL-8 R/B
OBJECT_ID      = 1988-053B
CENTER_NAME    = EARTH
REF_FRAME      = TEME
TIME_SYSTEM    = UTC
MEAN_ELEMENT_THEORY = SGP/SGP4

EPOCH          = 2026-02-28T06:30:55.635264
MEAN_MOTION    = 14.38909119
ECCENTRICITY   = .0021157
INCLINATION    = 74.0473
RA_OF_ASC_NODE = 129.8266
ARG_OF_PERICENTER = 310.5545
MEAN_ANOMALY   = 114.9714

EPHEMERIS_TYPE = 0
CLASSIFICATION_TYPE = U
NORAD_CAT_ID   = 19257
ELEMENT_SET_NO = 999
REV_AT_EPOCH   = 97524
BSTAR          = .84629201E-4
MEAN_MOTION_DOT = .235E-5
MEAN_MOTION_DDOT = 0

CCSDS_OMM_VERS = 2.0
CREATION_DATE  = 
ORIGINATOR     = 

OBJECT_NAME    = COSMOS 1975
OBJECT_ID      = 1988-093A
CENTER_NAME    = EARTH
REF_FRAME      = TEME
TIME_SYSTEM    = UTC
MEAN_ELEMENT_THEORY = SGP/SGP4

EPOCH          = 2026-02-28T05:29:52.735776
MEAN_MOTION    = 15.27897186
ECCENTRICITY   = .00112576
INCLINATION    = 82.5206
RA_OF_ASC_NODE = 127.1804
ARG_OF_PERICENTER = 196.4932
MEAN_ANOMALY   = 163.5942

EPHEMERIS_TYPE = 0
CLASSIFICATION_TYPE = U
NORAD_CAT_ID   = 19573
ELEMENT_SET_NO = 999
REV_AT_EPOCH   = 1796
BSTAR          = .27599624E-3
MEAN_MOTION_DOT = .7559E-4
MEAN_MOTION_DDOT = 0

CCSDS_OMM_VERS = 2.0
CREATION_DATE  = 
ORIGINATOR     = 

OBJECT_NAME    = SL-14 R/B
OBJECT_ID      = 1988-093B
CENTER_NAME    = EARTH
REF_FRAME      = TEME
TIME_SYSTEM    = UTC
MEAN_ELEMENT_THEORY = SGP/SGP4

EPOCH          = 2026-02-28T05:21:47.954016
MEAN_MOTION    = 14.85642747
ECCENTRICITY   = .0022257
INCLINATION    = 82.5287
RA_OF_ASC_NODE = 50.9313
ARG_OF_PERICENTER = 70.9818
MEAN_ANOMALY   = 299.5944

EPHEMERIS_TYPE = 0
CLASSIFICATION_TYPE = U
NORAD_CAT_ID   = 19574
ELEMENT_SET_NO = 999
REV_AT_EPOCH   = 99963
BSTAR          = .67542305E-4
MEAN_MOTION_DOT = .612E-5
MEAN_MOTION_DDOT = 0

CCSDS_OMM_VERS = 2.0
CREATION_DATE  = 
ORIGINATOR     = 

OBJECT_NAME    = SL-16 R/B
OBJECT_ID      = 1988-102B
CENTER_NAME    = EARTH
REF_FRAME      = TEME
TIME_SYSTEM    = UTC
MEAN_ELEMENT_THEORY = SGP/SGP4

EPOCH          = 2026-02-28T07:09:55.897632
MEAN_MOTION    = 14.16149802
ECCENTRICITY   = .00133869
INCLINATION    = 71.0001
RA_OF_ASC_NODE = 171.2551
ARG_OF_PERICENTER = 15.8707
MEAN_ANOMALY   = 344.2833

EPHEMERIS_TYPE = 0
CLASSIFICATION_TYPE = U
NORAD_CAT_ID   = 19650
ELEMENT_SET_NO = 999
REV_AT_EPOCH   = 92556
BSTAR          = -.86740693E-4
MEAN_MOTION_DOT = -.22E-5
MEAN_MOTION_DDOT = 0

CCSDS_OMM_VERS = 2.0
CREATION_DATE  = 
ORIGINATOR     = 

OBJECT_NAME    = INTERCOSMOS 24
OBJECT_ID      = 1989-080A
CENTER_NAME    = EARTH
REF_FRAME      = TEME
TIME_SYSTEM    = UTC
MEAN_ELEMENT_THEORY = SGP/SGP4

EPOCH          = 2026-02-28T04:36:01.868256
MEAN_MOTION    = 12.59540831
ECCENTRICITY   = .11869475
INCLINATION    = 82.6037
RA_OF_ASC_NODE = 110.5890
ARG_OF_PERICENTER = 314.8874
MEAN_ANOMALY   = 36.1565

EPHEMERIS_TYPE = 0
CLASSIFICATION_TYPE = U
NORAD_CAT_ID   = 20261
ELEMENT_SET_NO = 999
REV_AT_EPOCH   = 66560
BSTAR          = .19168451E-3
MEAN_MOTION_DOT = .648E-5
MEAN_MOTION_DDOT = 0

CCSDS_OMM_VERS = 2.0
CREATION_DATE  = 
ORIGINATOR     = 

OBJECT_NAME    = SL-14 R/B
OBJECT_ID      = 1989-080C
CENTER_NAME    = EARTH
REF_FRAME      = TEME
TIME_SYSTEM    = UTC
MEAN_ELEMENT_THEORY = SGP/SGP4

EPOCH          = 2026-02-28T06:33:52.081344
MEAN_MOTION    = 12.50479263
ECCENTRICITY   = .12302007
INCLINATION    = 82.5970
RA_OF_ASC_NODE = 179.2293
ARG_OF_PERICENTER = 206.2688
MEAN_ANOMALY   = 147.0669

EPHEMERIS_TYPE = 0
CLASSIFICATION_TYPE = U
NORAD_CAT_ID   = 20262
ELEMENT_SET_NO = 999
REV_AT_EPOCH   = 65897
BSTAR          = .1953911E-3
MEAN_MOTION_DOT = .656E-5
MEAN_MOTION_DDOT = 0

CCSDS_OMM_VERS = 2.0
CREATION_DATE  = 
ORIGINATOR     = 

OBJECT_NAME    = DELTA 1 R/B
OBJECT_ID      = 1989-089B
CENTER_NAME    = EARTH
REF_FRAME      = TEME
TIME_SYSTEM    = UTC
MEAN_ELEMENT_THEORY = SGP/SGP4

EPOCH          = 2026-02-28T04:06:20.669184
MEAN_MOTION    = 14.50653988
ECCENTRICITY   = .00698418
INCLINATION    = 97.0712
RA_OF_ASC_NODE = 268.1234
ARG_OF_PERICENTER = 151.6353
MEAN_ANOMALY   = 208.8676

EPHEMERIS_TYPE = 0
CLASSIFICATION_TYPE = U
NORAD_CAT_ID   = 20323
ELEMENT_SET_NO = 999
REV_AT_EPOCH   = 89435
BSTAR          = .107445E-3
MEAN_MOTION_DOT = .4E-5
MEAN_MOTION_DDOT = 0

CCSDS_OMM_VERS = 2.0
CREATION_DATE  = 
ORIGINATOR     = 

OBJECT_NAME    = ARIANE 40 R/B
OBJECT_ID      = 1990-005H
CENTER_NAME    = EARTH
REF_FRAME      = TEME
TIME_SYSTEM    = UTC
MEAN_ELEMENT_THEORY = SGP/SGP4

EPOCH          = 2026-02-28T03:42:06.618528
MEAN_MOTION    = 14.39863085
ECCENTRICITY   = .0009256
INCLINATION    = 98.3104
RA_OF_ASC_NODE = 120.0989
ARG_OF_PERICENTER = 228.3618
MEAN_ANOMALY   = 131.6779

EPHEMERIS_TYPE = 0
CLASSIFICATION_TYPE = U
NORAD_CAT_ID   = 20443
ELEMENT_SET_NO = 999
REV_AT_EPOCH   = 89143
BSTAR          = .10105327E-3
MEAN_MOTION_DOT = .275E-5
MEAN_MOTION_DDOT = 0

